satname,norad_id,inclination_deg,eccentricity,mean_motion_rev_per_day,perigee_km,apogee_km,l1,l2
STARLINK-1478,45755,53.0544,0.0001587,15.06392846,546.1344277088747,548.3325403004983,1 45755U 20038AB  25325.32084042  .00004908  00000+0  34824-3 0  9993,2 45755  53.0544 343.1054 0001587  75.6845 284.4320 15.06392846300139
STARLINK-1484,45756,53.0157,0.0003646,15.65436344,369.52303778921214,374.4452261186325,1 45756U 20038AC  25325.17263241  .00115168  00000+0  11205-2 0  9995,2 45756  53.0157 240.9964 0003646  97.1500 262.9928 15.65436344301558
STARLINK-1493,45759,53.0568,0.0001789,15.06466408,545.7691260128586,548.2469429061894,1 45759U 20038AF  25325.44240928  .00011219  00000+0  76947-3 0  9992,2 45759  53.0568 342.5577 0001789  85.4472 274.6722 15.06466408300156
STARLINK-1494,45760,53.0544,0.0004819,15.53323552,403.76046710607625,410.3000112912159,1 45760U 20038AG  25325.39635520  .00042497  00000+0  66548-3 0  9992,2 45760  53.0544 321.0660 0004819  68.6475 291.5048 15.53323552300467
STARLINK-1502,45764,53.055,0.0001533,15.06404262,546.1368416214464,548.2601494843839,1 45764U 20038AL  25325.40928978  .00004066  00000+0  29169-3 0  9998,2 45764  53.0550 342.7077 0001533  79.3436 280.7725 15.06404262300161
STARLINK-1470,45772,53.0472,0.0004774,15.19249352,504.8204763447684,511.39546304183114,1 45772U 20038AU  25325.36263513  .00058053  00000+0  27132-2 0  9991,2 45772  53.0472 313.6187 0004774 352.7824   7.3100 15.19249352300566
STARLINK-1482,45773,53.0547,0.0001366,15.06393578,546.2852352116106,548.1772458149198,1 45773U 20038AV  25325.44062359  .00001153  00000+0  96299-4 0  9997,2 45773  53.0547 322.5667 0001366  92.2398 267.8747 15.06393578300441
STARLINK-1496,45780,53.0542,0.0001723,15.06420799,545.954586159095,548.3410393055628,1 45780U 20038BC  25325.40743883  .00009872  00000+0  68032-3 0  9998,2 45780  53.0542 322.7141 0001723  96.3341 263.7845 15.06420799300421
STARLINK-1497,45781,53.038,0.0006549,15.6049919,381.784151494624,390.6440985982108,1 45781U 20038BD  25325.87058117  .00067067  00000+0  79816-3 0  9991,2 45781  53.0380 258.2494 0006549  49.0780 311.0799 15.60499190301381
STARLINK-1510,45784,53.0281,0.0004957,15.79678276,328.02557574925777,334.6773626176064,1 45784U 20038BG  25325.91670139  .00169409  00000+0  89191-3 0  9993,2 45784  53.0281 231.4971 0004957 126.0055 263.2339 15.79678276  5977
STARLINK-1513,45786,53.055,0.0001374,15.06392002,546.2845245048875,548.1876170247342,1 45786U 20038BJ  25325.30424419 -.00000056  00000+0  15109-4 0  9998,2 45786  53.0550 323.1804 0001374  91.9322 268.1824 15.06392002300420
STARLINK-1522,46027,53.0555,0.0001627,15.0641513,546.0384403896796,548.291933721347,1 46027U 20055A   25325.81565976  .00005891  00000+0  41388-3 0  9994,2 46027  53.0555 250.8817 0001627 104.7775 255.3394 15.06415130292620
STARLINK-1523,46028,53.0557,0.0001498,15.06411767,546.1380822011888,548.2129058243954,1 46028U 20055B   25325.16695832  .00008360  00000+0  57928-3 0  9999,2 46028  53.0557 253.7983 0001498  82.8123 277.3036 15.06411767292548
STARLINK-1526,46029,53.0551,0.0001594,15.0642203,546.0401501862389,548.2479297817854,1 46029U 20055C   25325.82303361  .00008538  00000+0  59102-3 0  9999,2 46029  53.0551 250.8473 0001594  86.6656 273.4516 15.06422030292630
STARLINK-1555,46032,53.0541,0.0001833,15.06395295,545.9565590892762,548.4953971570558,1 46032U 20055F   25325.07848435  .00003448  00000+0  25029-3 0  9992,2 46032  53.0541 254.1897 0001833  84.4312 275.6886 15.06395295292525
STARLINK-1556,46033,53.0542,0.000159,15.06408851,546.0833049233443,548.2855571384116,1 46033U 20055G   25325.19274933  .00012495  00000+0  85600-3 0  9995,2 46033  53.0542 253.6793 0001590  82.8548 277.2622 15.06408851292517
STARLINK-1557,46034,53.0547,0.0001535,15.06403424,546.138024498493,548.2641032841075,1 46034U 20055H   25325.79354962  .00002006  00000+0  15352-3 0  9997,2 46034  53.0547 250.9808 0001535  93.6708 266.4457 15.06403424292604
STARLINK-1558,46035,53.0552,0.0001428,15.06416576,546.1718228320415,548.1496878709713,1 46035U 20055J   25325.80091516  .00012632  00000+0  86501-3 0  9993,2 46035  53.0552 250.9507 0001428  89.1117 271.0036 15.06416576292632
STARLINK-1560,46036,53.0545,0.0001599,15.06403434,546.0936716913429,548.3083947943742,1 46036U 20055K   25325.18906382  .00008857  00000+0  61266-3 0  9996,2 46036  53.0545 253.6988 0001599  86.6652 273.4520 15.06403434292546
STARLINK-1567,46038,53.0547,0.0001511,15.06427855,546.0797804229642,548.1725949582842,1 46038U 20055M   25325.79723441  .00014534  00000+0  99189-3 0  9992,2 46038  53.0547 250.9652 0001511  83.2943 276.8218 15.06427855292621
STARLINK-1569,46039,53.0543,0.0001485,15.06416855,546.1314936828139,548.1883068621955,1 46039U 20055N   25325.80461249  .00010193  00000+0  70186-3 0  9993,2 46039  53.0543 250.9332 0001485  95.9051 264.2108 15.06416855292620
STARLINK-1582,46043,53.0547,0.0001543,15.06407198,546.1209193143059,548.2580750713396,1 46043U 20055S   25325.81198792  .00024791  00000+0  16770-2 0  9996,2 46043  53.0547 250.9001 0001543  76.5472 283.5689 15.06407198292627
STARLINK-1591,46045,53.0556,0.0001453,15.06394193,546.223099882619,548.2356113455598,1 46045U 20055U   25325.04161819  .00001971  00000+0  15122-3 0  9999,2 46045  53.0556 254.3587 0001453  99.2623 260.8530 15.06394193292494
STARLINK-1524,46047,53.0558,0.0001484,15.06438519,546.0658010595744,548.1212094735383,1 46047U 20055W   25325.79077494  .00015858  00000+0  10800-2 0  9994,2 46047  53.0558 240.9943 0001484 106.7299 253.3853 15.06438519292768
STARLINK-1527,46048,53.0544,0.0001648,15.06405279,546.0540838348479,548.3366733868379,1 46048U 20055X   25325.18998223  .00006667  00000+0  46598-3 0  9992,2 46048  53.0544 243.6921 0001648  83.6463 276.4713 15.06405279292654
STARLINK-1540,46051,53.0555,0.0001781,15.06397184,545.9867824708572,548.4535947014319,1 46051U 20055AA  25325.15681528  .00003498  00000+0  25365-3 0  9998,2 46051  53.0555 243.8414 0001781  81.7594 278.3597 15.06397184292680
STARLINK-1541,46052,53.0535,0.0001438,15.06419288,546.1565870050154,548.1483002490031,1 46052U 20055AB  25325.80552914  .00008358  00000+0  57902-3 0  9999,2 46052  53.0535 240.9267 0001438  73.2154 286.8993 15.06419288292741
STARLINK-1543,46053,53.055,0.0001555,15.06397726,546.1416346450142,548.2954202140436,1 46053U 20055AC  25325.01305281  .00002547  00000+0  18980-3 0  9993,2 46053  53.0550 244.4857 0001555 103.8967 256.2195 15.06397726292652
